HAWK-11A                
1 62382U 24247F   26068.51231358  .00009457  00000+0  34106-3 0  9991
2 62382  44.9941 114.3328 0005466 327.3713  32.6832 15.28849427 67741
STARLINK-34795          
1 65684U 25212J   26068.04206618  .00069873  00000+0  23509-2 0  9993
2 65684  53.1612 348.7369 0001079  66.5692 293.5422 15.30176161 27096
