[{"OBJECT_NAME":"HAWK-11A","OBJECT_ID":"2024-247F","EPOCH":"2026-03-09T12:17:43.893312","MEAN_MOTION":15.28849427,"ECCENTRICITY":0.00054663,"INCLINATION":44.9941,"RA_OF_ASC_NODE":114.3328,"ARG_OF_PERICENTER":327.3713,"MEAN_ANOMALY":32.6832,"EPHEMERIS_TYPE":0,"CLASSIFICATION_TYPE":"U","NORAD_CAT_ID":62382,"ELEMENT_SET_NO":999,"REV_AT_EPOCH":6774,"BSTAR":0.00034106017,"MEAN_MOTION_DOT":9.457e-5,"MEAN_MOTION_DDOT":0},{"OBJECT_NAME":"STARLINK-34795","OBJECT_ID":"2025-212J","EPOCH":"2026-03-09T01:00:34.517952","MEAN_MOTION":15.30176161,"ECCENTRICITY":0.00010795,"INCLINATION":53.1612,"RA_OF_ASC_NODE":348.7369,"ARG_OF_PERICENTER":66.5692,"MEAN_ANOMALY":293.5422,"EPHEMERIS_TYPE":0,"CLASSIFICATION_TYPE":"U","NORAD_CAT_ID":65684,"ELEMENT_SET_NO":999,"REV_AT_EPOCH":2709,"BSTAR":0.0023509301,"MEAN_MOTION_DOT":0.00069873,"MEAN_MOTION_DDOT":0}]
